{"type": "FeatureCollection", "features": [ {"type": "Feature", "properties": {"norad_id": 33825, "name": "COSMOS 2251 DEB", "group": "cosmos-2251-debris", "lat": -24.534529103948465, "lon": -132.34590820387544, "alt_km": 724.0539509290493, "timestamp": "2025-12-06T09:34:17.306802+00:00", "meta": {"OBJECT_NAME": "COSMOS 2251 DEB", "OBJECT_ID": "1993-036BS", "EPOCH": "2025-12-05T22:00:19.423872", "MEAN_MOTION": 14.69672101, "ECCENTRICITY": 0.00842216, "INCLINATION": 73.986, "RA_OF_ASC_NODE": 41.0577, "ARG_OF_PERICENTER": 9.8005, "MEAN_ANOMALY": 167.2615, "EPHEMERIS_TYPE": 0, "CLASSIFICATION_TYPE": "U", "NORAD_CAT_ID": 33825, "ELEMENT_SET_NO": 999, "REV_AT_EPOCH": 88779, "BSTAR": 0.0012316722, "MEAN_MOTION_DOT": 7.717e-05, "MEAN_MOTION_DDOT": 0}, "tle": {"line1": "1 33825U 93036BS  25339.91689148  .00007717  00000+0  12317-2 0  9997", "line2": "2 33825  73.9860  41.0577 0084221   9.8005 167.2615 14.69672101887793"}}, "geometry": {"type": "Point", "coordinates": [-132.34590820387544, -24.534529103948465]}}, {"type": "Feature", "properties": {"norad_id": 33826, "name": "COSMOS 2251 DEB", "group": "cosmos-2251-debris", "lat": 30.737301391575087, "lon": -127.9838609106854, "alt_km": 672.1895855146431, "timestamp": "2025-12-06T09:34:17.306812+00:00", "meta": {"OBJECT_NAME": "COSMOS 2251 DEB", "OBJECT_ID": "1993-036BT", "EPOCH": "2025-12-05T23:47:21.846048", "MEAN_MOTION": 14.5162476, "ECCENTRICITY": 0.00839768, "INCLINATION": 74.0659, "RA_OF_ASC_NODE": 62.5628, "ARG_OF_PERICENTER": 109.0587, "MEAN_ANOMALY": 69.0079, "EPHEMERIS_TYPE": 0, "CLASSIFICATION_TYPE": "U", "NORAD_CAT_ID": 33826, "ELEMENT_SET_NO": 999, "REV_AT_EPOCH": 87671, "BSTAR": 0.0021874645, "MEAN_MOTION_DOT": 9.163e-05, "MEAN_MOTION_DDOT": 0}, "tle": {"line1": "1 33826U 93036BT  25339.99122507  .00009163  00000+0  21875-2 0  9993", "line2": "2 33826  74.0659  62.5628 0083976 109.0587  69.0079 14.51624760876713"}}, "geometry": {"type": "Point", "coordinates": [-127.9838609106854, 30.737301391575087]}}, {"type": "Feature", "properties": {"norad_id": 33828, "name": "COSMOS 2251 DEB", "group": "cosmos-2251-debris", "lat": -30.0358684138398, "lon": 79.40003877250368, "alt_km": 757.8747398542482, "timestamp": "2025-12-06T09:34:17.306824+00:00", "meta": {"OBJECT_NAME": "COSMOS 2251 DEB", "OBJECT_ID": "1993-036BV", "EPOCH": "2025-12-05T21:18:35.326368", "MEAN_MOTION": 14.44296582, "ECCENTRICITY": 0.00293772, "INCLINATION": 74.0478, "RA_OF_ASC_NODE": 250.8304, "ARG_OF_PERICENTER": 324.8419, "MEAN_ANOMALY": 111.392, "EPHEMERIS_TYPE": 0, "CLASSIFICATION_TYPE": "U", "NORAD_CAT_ID": 33828, "ELEMENT_SET_NO": 999, "REV_AT_EPOCH": 88214, "BSTAR": 0.00096304024, "MEAN_MOTION_DOT": 3.304e-05, "MEAN_MOTION_DDOT": 0}, "tle": {"line1": "1 33828U 93036BV  25339.88790887  .00003304  00000+0  96304-3 0  9996", "line2": "2 33828  74.0478 250.8304 0029377 324.8419 111.3920 14.44296582882142"}}, "geometry": {"type": "Point", "coordinates": [79.40003877250368, -30.0358684138398]}}, {"type": "Feature", "properties": {"norad_id": 33830, "name": "COSMOS 2251 DEB", "group": "cosmos-2251-debris", "lat": 60.839659737467066, "lon": -86.33134479937813, "alt_km": 618.8686261544872, "timestamp": "2025-12-06T09:34:17.306834+00:00", "meta": {"OBJECT_NAME": "COSMOS 2251 DEB", "OBJECT_ID": "1993-036BX", "EPOCH": "2025-12-05T23:35:51.007200", "MEAN_MOTION": 14.76763252, "ECCENTRICITY": 0.00422412, "INCLINATION": 74.0332, "RA_OF_ASC_NODE": 243.6106, "ARG_OF_PERICENTER": 5.0968, "MEAN_ANOMALY": 11.3385, "EPHEMERIS_TYPE": 0, "CLASSIFICATION_TYPE": "U", "NORAD_CAT_ID": 33830, "ELEMENT_SET_NO": 999, "REV_AT_EPOCH": 89372, "BSTAR": 0.0015223562, "MEAN_MOTION_DOT": 0.00010813, "MEAN_MOTION_DDOT": 0}, "tle": {"line1": "1 33830U 93036BX  25339.98322925  .00010813  00000+0  15224-2 0  9998", "line2": "2 33830  74.0332 243.6106 0042241   5.0968  11.3385 14.76763252893724"}}, "geometry": {"type": "Point", "coordinates": [-86.33134479937813, 60.839659737467066]}}, {"type": "Feature", "properties": {"norad_id": 33832, "name": "COSMOS 2251 DEB", "group": "cosmos-2251-debris", "lat": 51.454592943916516, "lon": 21.042725540459095, "alt_km": 697.6362515912233, "timestamp": "2025-12-06T09:34:17.306851+00:00", "meta": {"OBJECT_NAME": "COSMOS 2251 DEB", "OBJECT_ID": "1993-036BZ", "EPOCH": "2025-12-05T23:13:12.612576", "MEAN_MOTION": 14.60515858, "ECCENTRICITY": 0.0025435, "INCLINATION": 74.0545, "RA_OF_ASC_NODE": 222.8946, "ARG_OF_PERICENTER": 255.3408, "MEAN_ANOMALY": 123.5802, "EPHEMERIS_TYPE": 0, "CLASSIFICATION_TYPE": "U", "NORAD_CAT_ID": 33832, "ELEMENT_SET_NO": 999, "REV_AT_EPOCH": 88326, "BSTAR": 0.002089982, "MEAN_MOTION_DOT": 0.00010175, "MEAN_MOTION_DDOT": 0}, "tle": {"line1": "1 33832U 93036BZ  25339.96750709  .00010175  00000+0  20900-2 0  9991", "line2": "2 33832  74.0545 222.8946 0025435 255.3408 123.5802 14.60515858883266"}}, "geometry": {"type": "Point", "coordinates": [21.042725540459095, 51.454592943916516]}}, {"type": "Feature", "properties": {"norad_id": 33835, "name": "COSMOS 2251 DEB", "group": "cosmos-2251-debris", "lat": -68.3436638147793, "lon": 67.18788515052509, "alt_km": 710.3109439107357, "timestamp": "2025-12-06T09:34:17.306863+00:00", "meta": {"OBJECT_NAME": "COSMOS 2251 DEB", "OBJECT_ID": "1993-036CC", "EPOCH": "2025-12-05T19:41:06.880992", "MEAN_MOTION": 14.62128118, "ECCENTRICITY": 0.0055348, "INCLINATION": 74.057, "RA_OF_ASC_NODE": 114.3423, "ARG_OF_PERICENTER": 169.8625, "MEAN_ANOMALY": 310.1676, "EPHEMERIS_TYPE": 0, "CLASSIFICATION_TYPE": "U", "NORAD_CAT_ID": 33835, "ELEMENT_SET_NO": 999, "REV_AT_EPOCH": 88688, "BSTAR": 0.0021470273, "MEAN_MOTION_DOT": 0.00011022, "MEAN_MOTION_DDOT": 0}, "tle": {"line1": "1 33835U 93036CC  25339.82021853  .00011022  00000+0  21470-2 0  9995", "line2": "2 33835  74.0570 114.3423 0055348 169.8625 310.1676 14.62128118886883"}}, "geometry": {"type": "Point", "coordinates": [67.18788515052509, -68.3436638147793]}}, {"type": "Feature", "properties": {"norad_id": 33836, "name": "COSMOS 2251 DEB", "group": "cosmos-2251-debris", "lat": -73.7343670255618, "lon": -168.14169540257848, "alt_km": 651.0903615692132, "timestamp": "2025-12-06T09:34:17.306873+00:00", "meta": {"OBJECT_NAME": "COSMOS 2251 DEB", "OBJECT_ID": "1993-036CD", "EPOCH": "2025-12-05T22:56:43.239264", "MEAN_MOTION": 14.79414001, "ECCENTRICITY": 0.00224407, "INCLINATION": 73.9979, "RA_OF_ASC_NODE": 272.3333, "ARG_OF_PERICENTER": 128.0519, "MEAN_ANOMALY": 307.614, "EPHEMERIS_TYPE": 0, "CLASSIFICATION_TYPE": "U", "NORAD_CAT_ID": 33836, "ELEMENT_SET_NO": 999, "REV_AT_EPOCH": 63988, "BSTAR": 0.0020640516, "MEAN_MOTION_DOT": 0.00015468, "MEAN_MOTION_DDOT": 0}, "tle": {"line1": "1 33836U 93036CD  25339.95605601  .00015468  00000+0  20641-2 0  9996", "line2": "2 33836  73.9979 272.3333 0022440 128.0519 307.6140 14.79414001639886"}}, "geometry": {"type": "Point", "coordinates": [-168.14169540257848, -73.7343670255618]}}, {"type": "Feature", "properties": {"norad_id": 33837, "name": "COSMOS 2251 DEB", "group": "cosmos-2251-debris", "lat": -8.65501189675719, "lon": -109.96280637362088, "alt_km": 732.0156811977604, "timestamp": "2025-12-06T09:34:17.306883+00:00", "meta": {"OBJECT_NAME": "COSMOS 2251 DEB", "OBJECT_ID": "1993-036CE", "EPOCH": "2025-12-05T16:08:57.457536", "MEAN_MOTION": 14.5067739, "ECCENTRICITY": 0.00357186, "INCLINATION": 74.0132, "RA_OF_ASC_NODE": 68.9021, "ARG_OF_PERICENTER": 291.7815, "MEAN_ANOMALY": 67.9546, "EPHEMERIS_TYPE": 0, "CLASSIFICATION_TYPE": "U", "NORAD_CAT_ID": 33837, "ELEMENT_SET_NO": 999, "REV_AT_EPOCH": 88693, "BSTAR": 0.00051853727, "MEAN_MOTION_DOT": 2.025e-05, "MEAN_MOTION_DDOT": 0}, "tle": {"line1": "1 33837U 93036CE  25339.67288724  .00002025  00000+0  51854-3 0  9995", "line2": "2 33837  74.0132  68.9021 0035718 291.7815  67.9546 14.50677390886939"}}, "geometry": {"type": "Point", "coordinates": [-109.96280637362088, -8.65501189675719]}}, {"type": "Feature", "properties": {"norad_id": 33838, "name": "COSMOS 2251 DEB", "group": "cosmos-2251-debris", "lat": 60.423579874868736, "lon": -48.60207291299018, "alt_km": 744.0260209517355, "timestamp": "2025-12-06T09:34:17.306893+00:00", "meta": {"OBJECT_NAME": "COSMOS 2251 DEB", "OBJECT_ID": "1993-036CF", "EPOCH": "2025-12-05T23:39:58.621824", "MEAN_MOTION": 14.48331499, "ECCENTRICITY": 0.00274174, "INCLINATION": 74.0359, "RA_OF_ASC_NODE": 162.4609, "ARG_OF_PERICENTER": 285.2903, "MEAN_ANOMALY": 198.9241, "EPHEMERIS_TYPE": 0, "CLASSIFICATION_TYPE": "U", "NORAD_CAT_ID": 33838, "ELEMENT_SET_NO": 999, "REV_AT_EPOCH": 88471, "BSTAR": 0.00071643198, "MEAN_MOTION_DOT": 2.665e-05, "MEAN_MOTION_DDOT": 0}, "tle": {"line1": "1 33838U 93036CF  25339.98609516  .00002665  00000+0  71643-3 0  9994", "line2": "2 33838  74.0359 162.4609 0027417 285.2903 198.9241 14.48331499884711"}}, "geometry": {"type": "Point", "coordinates": [-48.60207291299018, 60.423579874868736]}}, {"type": "Feature", "properties": {"norad_id": 33839, "name": "COSMOS 2251 DEB", "group": "cosmos-2251-debris", "lat": 34.66496000722321, "lon": -129.92154648721032, "alt_km": 649.85783405641, "timestamp": "2025-12-06T09:34:17.306904+00:00", "meta": {"OBJECT_NAME": "COSMOS 2251 DEB", "OBJECT_ID": "1993-036CG", "EPOCH": "2025-12-05T17:16:04.786176", "MEAN_MOTION": 14.64390153, "ECCENTRICITY": 0.00849128, "INCLINATION": 74.0395, "RA_OF_ASC_NODE": 219.9685, "ARG_OF_PERICENTER": 333.6932, "MEAN_ANOMALY": 82.0697, "EPHEMERIS_TYPE": 0, "CLASSIFICATION_TYPE": "U", "NORAD_CAT_ID": 33839, "ELEMENT_SET_NO": 999, "REV_AT_EPOCH": 89477, "BSTAR": 0.00053952094, "MEAN_MOTION_DOT": 2.974e-05, "MEAN_MOTION_DDOT": 0}, "tle": {"line1": "1 33839U 93036CG  25339.71949984  .00002974  00000+0  53952-3 0  9998", "line2": "2 33839  74.0395 219.9685 0084912 333.6932  82.0697 14.64390153894772"}}, "geometry": {"type": "Point", "coordinates": [-129.92154648721032, 34.66496000722321]}}]}